*******************************************************************************
JPL/HORIZONS             2952 Lilliputia (1979 SF2)        2023-Sep-04 11:20:52
Rec #:    2952 (+COV) Soln.date: 2023-Aug-23_04:18:58   # obs: 2963 (1955-2023)
 
IAU76/J2000 helio. ecliptic osc. elements (au, days, deg., period=Julian yrs):
 
  EPOCH=  2457798.5 ! 2017-Feb-14.00 (TDB)         Residual RMS= .2601
   EC= .1711261598040387   QR= 1.917428715534335   TP= 2458376.3409717269
   OM= 323.2314085618139   W=  78.96439446279125   IN= 3.318137246066188
   A= 2.313293800032366    MA= 198.1300564462113   ADIST= 2.709158884530396
   PER= 3.51847            N= .280128879           ANGMOM= .025777625
   DAN= 2.17433            DDN= 2.3216             L= 42.1777273
   B= 3.2567129            MOID= .92970401         TP= 2018-Sep-14.8409717269
 
Asteroid physical parameters (km, seconds, rotational period in hours):
   GM= n.a.                RAD= 3.015              ROTPER= 3.26
   H= 14.35                G= .150                 B-V= n.a.
                           ALBEDO= .101            STYP= Cb

ASTEROID comments: 
1: soln ref.= JPL#47, OCC=0
2: source=ORB
*******************************************************************************


*******************************************************************************
Ephemeris / API_USER Mon Sep  4 11:20:52 2023 Pasadena, USA      / Horizons
*******************************************************************************
Target body name: 2952 Lilliputia (1979 SF2)      {source: JPL#47}
Center body name: Solar System Barycenter (0)     {source: DE441}
Center-site name: BODY CENTER
*******************************************************************************
Start time      : A.D. 2023-Aug-12 00:00:00.0000 TDB
Stop  time      : A.D. 2023-Aug-13 00:00:00.0000 TDB
Step-size       : 2880 minutes
*******************************************************************************
Center geodetic : 0.0, 0.0, 0.0                   {E-lon(deg),Lat(deg),Alt(km)}
Center cylindric: 0.0, 0.0, 0.0                   {E-lon(deg),Dxy(km),Dz(km)}
Center radii    : (undefined)
Small perturbers: Yes                             {source: SB441-N16}
Output units    : KM-S
Calendar mode   : Mixed Julian/Gregorian
Output type     : GEOMETRIC cartesian states
Output format   : 2 (position and velocity)
Reference frame : Ecliptic of J2000.0
*******************************************************************************
Initial IAU76/J2000 heliocentric ecliptic osculating elements (au, days, deg.):
  EPOCH=  2457798.5 ! 2017-Feb-14.00 (TDB)         Residual RMS= .2601         
   EC= .1711261598040387   QR= 1.917428715534335   TP= 2458376.3409717269      
   OM= 323.2314085618139   W=  78.96439446279125   IN= 3.318137246066188       
  Equivalent ICRF heliocentric cartesian coordinates (au, au/d):
   X=-1.532672912509615E+00  Y=-1.966498254479423E+00  Z=-1.022474249323845E+00
  VX= 8.113638601306481E-03 VY=-4.684616036484814E-03 VZ=-1.981595927250535E-03
Asteroid physical parameters (km, seconds, rotational period in hours):        
   GM= n.a.                RAD= 3.015              ROTPER= 3.26                
   H= 14.35                G= .150                 B-V= n.a.                   
                           ALBEDO= .101            STYP= Cb                    
*******************************************************************************
JDTDB
   X     Y     Z
   VX    VY    VZ
*******************************************************************************
$$SOE
2460168.500000000 = A.D. 2023-Aug-12 00:00:00.0000 TDB 
 X =-3.844749946672552E+08 Y =-9.831077571262315E+07 Z =-1.782047889441147E+07
 VX= 2.693284979895072E+00 VY=-1.672608579771993E+01 VZ=-6.822376426556769E-01
$$EOE
*******************************************************************************
 
TIME

  Barycentric Dynamical Time ("TDB" or T_eph) output was requested. This
continuous coordinate time is equivalent to the relativistic proper time
of a clock at rest in a reference frame co-moving with the solar system
barycenter but outside the system's gravity well. It is the independent
variable in the solar system relativistic equations of motion.

  TDB runs at a uniform rate of one SI second per second and is independent
of irregularities in Earth's rotation.
 
CALENDAR SYSTEM

  Mixed calendar mode was active such that calendar dates after AD 1582-Oct-15
(if any) are in the modern Gregorian system. Dates prior to 1582-Oct-5 (if any)
are in the Julian calendar system, which is automatically extended for dates
prior to its adoption on 45-Jan-1 BC.  The Julian calendar is useful for
matching historical dates. The Gregorian calendar more accurately corresponds
to the Earth's orbital motion and seasons. A "Gregorian-only" calendar mode is
available if such physical events are the primary interest.

REFERENCE FRAME AND COORDINATES

  Ecliptic at the standard reference epoch

    Reference epoch: J2000.0
    X-Y plane: adopted Earth orbital plane at the reference epoch
               Note: IAU76 obliquity of 84381.448 arcseconds wrt ICRF X-Y plane
    X-axis   : ICRF
    Z-axis   : perpendicular to the X-Y plane in the directional (+ or -) sense
               of Earth's north pole at the reference epoch.

  Symbol meaning:

    JDTDB    Julian Day Number, Barycentric Dynamical Time
      X      X-component of position vector (km)
      Y      Y-component of position vector (km)
      Z      Z-component of position vector (km)
      VX     X-component of velocity vector (km/sec)                           
      VY     Y-component of velocity vector (km/sec)                           
      VZ     Z-component of velocity vector (km/sec)                           

ABERRATIONS AND CORRECTIONS

 Geometric state vectors have NO corrections or aberrations applied.

Computations by ...

    Solar System Dynamics Group, Horizons On-Line Ephemeris System
    4800 Oak Grove Drive, Jet Propulsion Laboratory
    Pasadena, CA  91109   USA

    General site: https://ssd.jpl.nasa.gov/
    Mailing list: https://ssd.jpl.nasa.gov/email_list.html
    System news : https://ssd.jpl.nasa.gov/horizons/news.html
    User Guide  : https://ssd.jpl.nasa.gov/horizons/manual.html
    Connect     : browser        https://ssd.jpl.nasa.gov/horizons/app.html#/x
                  API            https://ssd-api.jpl.nasa.gov/doc/horizons.html
                  command-line   telnet ssd.jpl.nasa.gov 6775
                  e-mail/batch   https://ssd.jpl.nasa.gov/ftp/ssd/hrzn_batch.txt
                  scripts        https://ssd.jpl.nasa.gov/ftp/ssd/SCRIPTS
    Author      : Jon.D.Giorgini@jpl.nasa.gov
*******************************************************************************
